IRIDIUM 112             
1 41925U 17003J   25077.54512587  .00000223  00000+0  72510-4 0  9995
2 41925  86.3906 278.6823 0002196  90.8023 269.3424 14.34214321427964
IRIDIUM 111             
1 41926U 17003K   25077.60220105 -.00000048  00000+0 -24115-4 0  9990
2 41926  86.3908 278.7189 0001909  86.0432 274.0981 14.34217408427954
IRIDIUM 113             
1 42803U 17039A   25077.58215638  .00000578  00000+0  19934-3 0  9994
2 42803  86.4022 152.6146 0002618  99.1727 260.9765 14.34224016405885
IRIDIUM 123             
1 42804U 17039B   25077.34457083  .00000802  00000+0  27914-3 0  9998
2 42804  86.4048 184.1305 0002084  89.3288 270.8146 14.34218306404619
IRIDIUM 120             
1 42805U 17039C   25077.57582302  .00000680  00000+0  23568-3 0  9992
2 42805  86.4011 152.4590 0001818  95.7238 264.4165 14.34217859405875
IRIDIUM 115             
1 42806U 17039D   25077.26828983  .00000884  00000+0  25665-3 0  9993
2 42806  86.4548 152.6529 0002312  76.8532 283.2927 14.43291276408505
IRIDIUM 118             
1 42807U 17039E   25077.37628300  .00000089  00000+0  24581-4 0  9991
2 42807  86.4048 184.1174 0002100  98.1772 261.9662 14.34215977404616
IRIDIUM 117             
1 42808U 17039F   25077.39531046  .00000749  00000+0  26045-3 0  9993
2 42808  86.4043 184.0712 0002113  88.1241 272.0196 14.34217829404649
